[
    {
        "Altitude(m)": 611965.1942406092,
        "Argument of Periapsis(deg)": 0.0,
        "Eccentricity": 0.0,
        "Inclination(deg)": 60.0,
        "Latitude(deg)": 59.140188495937664,
        "Longitude(deg)": -161.03002483277984,
        "Mean Anomaly(deg)": 81.8182,
        "RAAN(deg)": 225.0,
        "Satellite Name": "Test1 995",
        "Satellite Number": 995,
        "Semi-Major Axis(m)": 6980739.136638005,
        "Time(s)": 0
    },
    {
        "Altitude(m)": 611995.8191064453,
        "Argument of Periapsis(deg)": 0.00010418945913296404,
        "Eccentricity": 0.0,
        "Inclination(deg)": 60.0,
        "Latitude(deg)": 59.28328661091384,
        "Longitude(deg)": -159.89666089529513,
        "Mean Anomaly(deg)": 82.43830614546181,
        "RAAN(deg)": 224.99957995086024,
        "Satellite Name": "Test1 995",
        "Satellite Number": 995,
        "Semi-Major Axis(m)": 6980739.136638005,
        "Time(s)": 10
    }
]